{
  "type": "FeatureCollection",
  "features": [
    {
      "type": "Feature",
      "properties": {
        "norad_id": 34010,
        "name": "COSMOS 2251 DEB",
        "group": "cosmos-2251-debris",
        "lat": -12.838387435902126,
        "lon": 124.14266914224525,
        "alt_km": 522.6701359815816,
        "timestamp": "2025-12-04T13:52:00.835071+00:00",
        "meta_object_name": "COSMOS 2251 DEB",
        "meta_object_id": "1993-036GV",
        "meta_epoch": "2025-12-04T06:41:05.349696",
        "meta_mean_motion": 15.16457386,
        "meta_eccentricity": 0.00043771,
        "meta_inclination": 73.9997,
        "meta_ra_of_asc_node": 301.0181,
        "meta_arg_of_pericenter": 56.2988,
        "meta_mean_anomaly": 303.8624,
        "meta_ephemeris_type": 0,
        "meta_classification_type": "U",
        "meta_norad_cat_id": 34010,
        "meta_element_set_no": 999,
        "meta_rev_at_epoch": 89157,
        "meta_bstar": 0.0094330418,
        "meta_mean_motion_dot": 0.00188475,
        "meta_mean_motion_ddot": 0,
        "tle_line1": "1 34010U 93036GV  25338.27853414  .00188475  00000+0  94330-2 0  9997",
        "tle_line2": "2 34010  73.9997 301.0181 0004377  56.2988 303.8624 15.16457386891579"
      },
      "geometry": {
        "type": "Point",
        "coordinates": [
          124.14266914224525,
          -12.838387435902126
        ]
      }
    },
    {
      "type": "Feature",
      "properties": {
        "norad_id": 34011,
        "name": "COSMOS 2251 DEB",
        "group": "cosmos-2251-debris",
        "lat": 31.21179722496432,
        "lon": -4.702981929255068,
        "alt_km": 731.1823512656465,
        "timestamp": "2025-12-04T13:52:00.835084+00:00",
        "meta_object_name": "COSMOS 2251 DEB",
        "meta_object_id": "1993-036GW",
        "meta_epoch": "2025-12-04T02:03:32.943744",
        "meta_mean_motion": 14.41704225,
        "meta_eccentricity": 0.00352032,
        "meta_inclination": 74.0145,
        "meta_ra_of_asc_node": 346.2072,
        "meta_arg_of_pericenter": 72.5903,
        "meta_mean_anomaly": 287.9097,
        "meta_ephemeris_type": 0,
        "meta_classification_type": "U",
        "meta_norad_cat_id": 34011,
        "meta_element_set_no": 999,
        "meta_rev_at_epoch": 87791,
        "meta_bstar": 0.0014391119,
        "meta_mean_motion_dot": 4.704e-05,
        "meta_mean_motion_ddot": 0,
        "tle_line1": "1 34011U 93036GW  25338.08579796  .00004704  00000+0  14391-2 0  9996",
        "tle_line2": "2 34011  74.0145 346.2072 0035203  72.5903 287.9097 14.41704225877919"
      },
      "geometry": {
        "type": "Point",
        "coordinates": [
          -4.702981929255068,
          31.21179722496432
        ]
      }
    },
    {
      "type": "Feature",
      "properties": {
        "norad_id": 34014,
        "name": "COSMOS 2251 DEB",
        "group": "cosmos-2251-debris",
        "lat": 46.33401891545493,
        "lon": 99.17081647688873,
        "alt_km": 631.4291586535392,
        "timestamp": "2025-12-04T13:52:00.835094+00:00",
        "meta_object_name": "COSMOS 2251 DEB",
        "meta_object_id": "1993-036GZ",
        "meta_epoch": "2025-12-04T07:18:11.252160",
        "meta_mean_motion": 14.72964202,
        "meta_eccentricity": 0.00367644,
        "meta_inclination": 74.0173,
        "meta_ra_of_asc_node": 297.1782,
        "meta_arg_of_pericenter": 79.1608,
        "meta_mean_anomaly": 41.9942,
        "meta_ephemeris_type": 0,
        "meta_classification_type": "U",
        "meta_norad_cat_id": 34014,
        "meta_element_set_no": 999,
        "meta_rev_at_epoch": 89179,
        "meta_bstar": 0.0023991166,
        "meta_mean_motion_dot": 0.00015567,
        "meta_mean_motion_ddot": 0,
        "tle_line1": "1 34014U 93036GZ  25338.30429690  .00015567  00000+0  23991-2 0  9996",
        "tle_line2": "2 34014  74.0173 297.1782 0036764  79.1608  41.9942 14.72964202891799"
      },
      "geometry": {
        "type": "Point",
        "coordinates": [
          99.17081647688873,
          46.33401891545493
        ]
      }
    },
    {
      "type": "Feature",
      "properties": {
        "norad_id": 34015,
        "name": "COSMOS 2251 DEB",
        "group": "cosmos-2251-debris",
        "lat": -73.37506433197873,
        "lon": 68.65249418947734,
        "alt_km": 684.9827299092676,
        "timestamp": "2025-12-04T13:52:00.835105+00:00",
        "meta_object_name": "COSMOS 2251 DEB",
        "meta_object_id": "1993-036HA",
        "meta_epoch": "2025-12-03T20:16:48.185760",
        "meta_mean_motion": 14.60065774,
        "meta_eccentricity": 0.00212138,
        "meta_inclination": 74.0233,
        "meta_ra_of_asc_node": 176.4133,
        "meta_arg_of_pericenter": 273.7846,
        "meta_mean_anomaly": 101.4842,
        "meta_ephemeris_type": 0,
        "meta_classification_type": "U",
        "meta_norad_cat_id": 34015,
        "meta_element_set_no": 999,
        "meta_rev_at_epoch": 88401,
        "meta_bstar": 0.0017265095,
        "meta_mean_motion_dot": 8.304e-05,
        "meta_mean_motion_ddot": 0,
        "tle_line1": "1 34015U 93036HA  25337.84500215  .00008304  00000+0  17265-2 0  9996",
        "tle_line2": "2 34015  74.0233 176.4133 0021213 273.7846 101.4842 14.60065774884016"
      },
      "geometry": {
        "type": "Point",
        "coordinates": [
          68.65249418947734,
          -73.37506433197873
        ]
      }
    },
    {
      "type": "Feature",
      "properties": {
        "norad_id": 34018,
        "name": "COSMOS 2251 DEB",
        "group": "cosmos-2251-debris",
        "lat": -31.213840422274885,
        "lon": -63.978585063434565,
        "alt_km": 892.4336439666549,
        "timestamp": "2025-12-04T13:52:00.835115+00:00",
        "meta_object_name": "COSMOS 2251 DEB",
        "meta_object_id": "1993-036HD",
        "meta_epoch": "2025-12-03T18:18:39.976416",
        "meta_mean_motion": 13.81049036,
        "meta_eccentricity": 0.0264283,
        "meta_inclination": 73.8768,
        "meta_ra_of_asc_node": 107.3073,
        "meta_arg_of_pericenter": 144.884,
        "meta_mean_anomaly": 335.2544,
        "meta_ephemeris_type": 0,
        "meta_classification_type": "U",
        "meta_norad_cat_id": 34018,
        "meta_element_set_no": 999,
        "meta_rev_at_epoch": 84533,
        "meta_bstar": 0.00087209633,
        "meta_mean_motion_dot": 1.179e-05,
        "meta_mean_motion_ddot": 0,
        "tle_line1": "1 34018U 93036HD  25337.76296269  .00001179  00000+0  87210-3 0  9992",
        "tle_line2": "2 34018  73.8768 107.3073 0264283 144.8840 335.2544 13.81049036845336"
      },
      "geometry": {
        "type": "Point",
        "coordinates": [
          -63.978585063434565,
          -31.213840422274885
        ]
      }
    },
    {
      "type": "Feature",
      "properties": {
        "norad_id": 34019,
        "name": "COSMOS 2251 DEB",
        "group": "cosmos-2251-debris",
        "lat": -41.3608674611267,
        "lon": -99.57406939260697,
        "alt_km": 744.2090536632277,
        "timestamp": "2025-12-04T13:52:00.835125+00:00",
        "meta_object_name": "COSMOS 2251 DEB",
        "meta_object_id": "1993-036HE",
        "meta_epoch": "2025-12-04T06:25:50.562048",
        "meta_mean_motion": 14.33869907,
        "meta_eccentricity": 0.00627036,
        "meta_inclination": 73.9553,
        "meta_ra_of_asc_node": 66.319,
        "meta_arg_of_pericenter": 248.7341,
        "meta_mean_anomaly": 176.1749,
        "meta_ephemeris_type": 0,
        "meta_classification_type": "U",
        "meta_norad_cat_id": 34019,
        "meta_element_set_no": 999,
        "meta_rev_at_epoch": 87399,
        "meta_bstar": 0.0021845265,
        "meta_mean_motion_dot": 6.197e-05,
        "meta_mean_motion_ddot": 0,
        "tle_line1": "1 34019U 93036HE  25338.26794632  .00006197  00000+0  21845-2 0  9992",
        "tle_line2": "2 34019  73.9553  66.3190 0062703 248.7341 176.1749 14.33869907873994"
      },
      "geometry": {
        "type": "Point",
        "coordinates": [
          -99.57406939260697,
          -41.3608674611267
        ]
      }
    },
    {
      "type": "Feature",
      "properties": {
        "norad_id": 34021,
        "name": "COSMOS 2251 DEB",
        "group": "cosmos-2251-debris",
        "lat": -31.1857858386883,
        "lon": -24.868274200454135,
        "alt_km": 728.3937513231704,
        "timestamp": "2025-12-04T13:52:00.835135+00:00",
        "meta_object_name": "COSMOS 2251 DEB",
        "meta_object_id": "1993-036HG",
        "meta_epoch": "2025-12-03T12:20:09.809952",
        "meta_mean_motion": 14.4989198,
        "meta_eccentricity": 0.00207279,
        "meta_inclination": 74.0345,
        "meta_ra_of_asc_node": 147.1497,
        "meta_arg_of_pericenter": 292.0601,
        "meta_mean_anomaly": 130.3655,
        "meta_ephemeris_type": 0,
        "meta_classification_type": "U",
        "meta_norad_cat_id": 34021,
        "meta_element_set_no": 999,
        "meta_rev_at_epoch": 88496,
        "meta_bstar": 0.00063145798,
        "meta_mean_motion_dot": 2.419e-05,
        "meta_mean_motion_ddot": 0,
        "tle_line1": "1 34021U 93036HG  25337.51400243  .00002419  00000+0  63146-3 0  9998",
        "tle_line2": "2 34021  74.0345 147.1497 0020727 292.0601 130.3655 14.49891980884967"
      },
      "geometry": {
        "type": "Point",
        "coordinates": [
          -24.868274200454135,
          -31.1857858386883
        ]
      }
    }
  ]
}